     2.100          NAVIGATION                              RINEX VERSION / TYPE
fic2rin                                 03/08/2010 00:25:36 PGM / RUN BY / DATE
                                                            END OF HEADER
 3 10  3  7  8  0  0.0  .524823088199D-03  .511590769747D-11  .000000000000D+00
     .500000000000D+02 -.237187500000D+02  .558416117416D-08  .165783009683D+01
    -.132247805595D-05  .128784371773D-01  .730529427528D-05  .515369152832D+04
     .288000000000D+05 -.314787030220D-06 -.416785670922D+00 -.113621354103D-06
     .927258956309D+00  .224500000000D+03  .983358690117D+00 -.847285292833D-08
     .850035407387D-10  .100000000000D+01  .157400000000D+04  .000000000000D+00
     .240000000000D+01  .000000000000D+00 -.419095158577D-08  .500000000000D+02
     .216060000000D+05  .400000000000D+01
 5 10  3  7  8  0  0.0 -.470271334052D-05  .159161572810D-11  .000000000000D+00
     .290000000000D+02  .690937500000D+02  .449590155806D-08 -.302878599890D+01
     .362843275070D-05  .191163143609D-02  .757537782192D-05  .515366365623D+04
     .288000000000D+05  .298023223877D-07  .179362726400D+01  .745058059692D-08
     .959029054610D+00  .234718750000D+03  .345360947133D+00 -.802461997192D-08
    -.657170230921D-10  .100000000000D+01  .157400000000D+04  .000000000000D+00
     .240000000000D+01  .000000000000D+00 -.884756445885D-08  .290000000000D+02
     .216060000000D+05  .400000000000D+01
 6 10  3  7  8  0  0.0  .693234615028D-03 -.670752342558D-11  .000000000000D+00
     .700000000000D+01 -.158437500000D+02  .534307970357D-08 -.236933167448D+01
    -.683590769768D-06  .606341299135D-02  .697560608387D-05  .515365970421D+04
     .288000000000D+05  .223517417908D-07 -.346858344728D+00  .102445483208D-06
     .934663345006D+00  .228875000000D+03 -.113133362918D+01 -.820034157714D-08
     .850035407387D-10  .100000000000D+01  .157400000000D+04  .000000000000D+00
     .240000000000D+01  .000000000000D+00 -.465661287308D-08  .700000000000D+01
     .216060000000D+05  .400000000000D+01
 7 10  3  7  8  0  0.0  .197160989046D-05 -.454747350886D-12  .000000000000D+00
     .540000000000D+02 -.641562500000D+02  .424660545959D-08  .126739707378D+00
    -.331737101078D-05  .327091198415D-02  .563636422157D-05  .515372788429D+04
     .288000000000D+05  .540167093277D-07 -.238990723106D+01  .279396772385D-07
     .970810709248D+00  .276375000000D+03  .306625747809D+01 -.808355099806D-08
     .471448209139D-10  .100000000000D+01  .157400000000D+04  .000000000000D+00
     .240000000000D+01  .000000000000D+00 -.107102096081D-07  .540000000000D+02
     .216060000000D+05  .400000000000D+01
 8 10  3  7  8  0  0.0  .391574576497D-05  .341060513165D-12  .000000000000D+00
     .230000000000D+02 -.612500000000D+02  .380230123825D-08 -.479244744730D+00
    -.322610139847D-05  .109566148603D-01  .600330531597D-05  .515371491623D+04
     .288000000000D+05  .223517417908D-06 -.232369132364D+01 -.670552253723D-07
     .992098273904D+00  .277875000000D+03  .309111762329D+01 -.788782855972D-08
     .882179603464D-10  .100000000000D+01  .157400000000D+04  .000000000000D+00
     .240000000000D+01  .000000000000D+00 -.419095158577D-08  .230000000000D+02
     .216060000000D+05  .400000000000D+01
 9 10  3  7  8  0  0.0  .110076740384D-03  .227373675443D-11  .000000000000D+00
     .102000000000D+03 -.418750000000D+02  .419124601079D-08 -.599666575594D+00
    -.221468508244D-05  .207320372574D-01  .638701021671D-05  .515360545921D+04
     .288000000000D+05 -.240281224251D-06 -.242188279328D+01  .968575477600D-07
     .979625857143D+00  .273343750000D+03  .153232856967D+01 -.833606151614D-08
     .132148361653D-09  .100000000000D+01  .157400000000D+04  .000000000000D+00
     .485000000000D+01  .000000000000D+00 -.558793544769D-08  .102000000000D+03
     .216060000000D+05  .400000000000D+01
10 10  3  7  8  0  0.0 -.372207723558D-04 -.909494701773D-12  .000000000000D+00
     .290000000000D+02  .719375000000D+02  .451733102211D-08 -.301420471697D+01
     .368803739548D-05  .916912581306D-02  .747479498386D-05  .515346710777D+04
     .288000000000D+05  .186264514923D-08  .181986022615D+01 -.782310962677D-07
     .954076714108D+00  .233093750000D+03  .656729677530D+00 -.794318800852D-08
    -.432160858377D-10  .100000000000D+01  .157400000000D+04  .000000000000D+00
     .240000000000D+01  .000000000000D+00 -.279396772385D-08  .290000000000D+02
     .216060000000D+05  .400000000000D+01
11 10  3  7  8  0  0.0 -.491761602461D-04 -.216004991671D-11  .000000000000D+00
     .800000000000D+01  .684375000000D+01  .639990943906D-08  .337456375041D-01
     .480562448502D-06  .105169885792D-01  .764243304729D-05  .515372340775D+04
     .288000000000D+05  .260770320892D-07  .519686253373D+00  .152736902237D-06
     .888855146259D+00  .190843750000D+03  .795261168791D+00 -.898323133050D-08
    -.298941023522D-09  .100000000000D+01  .157400000000D+04  .000000000000D+00
     .240000000000D+01  .000000000000D+00 -.116415321827D-07  .800000000000D+01
     .216060000000D+05  .400000000000D+01
13 10  3  7  8  0  0.0  .306184403598D-03 -.227373675443D-12  .000000000000D+00
     .690000000000D+02  .225937500000D+02  .377051419991D-08  .263984670151D+01
     .116974115372D-05  .423196062911D-02  .414438545704D-05  .515358126068D+04
     .288000000000D+05  .558793544769D-08  .291063520499D+01 -.372529029846D-08
     .993653298768D+00  .316093750000D+03  .164041771000D+01 -.784139805428D-08
     .714315468392D-11  .100000000000D+01  .157400000000D+04  .000000000000D+00
     .240000000000D+01  .000000000000D+00 -.111758708954D-07  .690000000000D+02
     .216060000000D+05  .400000000000D+01
15 10  3  7  8  0  0.0 -.300610903651D-03  .363797880709D-11  .000000000000D+00
     .630000000000D+02  .269687500000D+02  .465483674978D-08  .244783036205D+01
     .140443444252D-05  .243220466655D-02  .406615436077D-05  .515373746490D+04
     .288000000000D+05  .558793544769D-08  .282794032855D+01  .745058059692D-07
     .954608085453D+00  .296281250000D+03 -.244677469696D+00 -.828498796015D-08
     .100004165575D-10  .100000000000D+01  .157400000000D+04  .000000000000D+00
     .240000000000D+01  .000000000000D+00 -.977888703346D-08  .630000000000D+02
     .216060000000D+05  .400000000000D+01
17 10  3  7  8  0  0.0  .135089270771D-03  .284217094304D-11  .000000000000D+00
     .104000000000D+03 -.191562500000D+02  .465519390751D-08  .289267621930D+01
    -.104866921902D-05  .522987416480D-02  .763684511185D-05  .515356973076D+04
     .288000000000D+05 -.428408384323D-07 -.275745421446D+00 -.782310962677D-07
     .960435448460D+00  .231062500000D+03 -.256049887192D+01 -.788675708652D-08
     .335728270144D-10  .100000000000D+01  .157400000000D+04  .000000000000D+00
     .340000000000D+01  .000000000000D+00 -.102445483208D-07  .104000000000D+03
     .216060000000D+05  .400000000000D+01
18 10  3  7  8  0  0.0  .535002909601D-04  .261479726760D-11  .000000000000D+00
     .420000000000D+02  .753750000000D+02  .484127308703D-08 -.191092733009D+01
     .385940074921D-05  .110035029938D-01  .659376382828D-05  .515367332077D+04
     .288000000000D+05  .108033418655D-06  .182102542577D+01 -.189989805222D-06
     .938071739322D+00  .242031250000D+03 -.235035024511D+01 -.804354933183D-08
    -.164292557730D-10  .100000000000D+01  .157400000000D+04  .000000000000D+00
     .240000000000D+01  .000000000000D+00 -.107102096081D-07  .420000000000D+02
     .216060000000D+05  .400000000000D+01
19 10  3  7  8  0  0.0 -.198781490326D-04 -.238742359215D-11  .000000000000D+00
     .189000000000D+03 -.203125000000D+02  .484484466437D-08  .229717836483D+01
    -.890344381332D-06  .621543533634D-02  .742077827454D-05  .515370199966D+04
     .288000000000D+05 -.260770320892D-07 -.220518161741D+00  .160187482834D-06
     .958098486568D+00  .235312500000D+03 -.176811159546D+00 -.800533345427D-08
    -.292869342041D-10  .100000000000D+01  .157400000000D+04  .000000000000D+00
     .340000000000D+01  .000000000000D+00 -.149011611938D-07  .189000000000D+03
     .216060000000D+05  .400000000000D+01
20 10  3  7  8  0  0.0  .600018538535D-04 -.682121026330D-12  .000000000000D+00
     .700000000000D+01  .907500000000D+02  .491913347308D-08 -.176083538033D+01
     .466033816338D-05  .434709503315D-02  .751018524170D-05  .515366349792D+04
     .288000000000D+05  .102445483208D-06  .176707923611D+01  .353902578354D-07
     .937886668481D+00  .222281250000D+03  .129492265717D+01 -.821891377932D-08
    -.135362781260D-09  .100000000000D+01  .157400000000D+04  .000000000000D+00
     .240000000000D+01  .000000000000D+00 -.791624188423D-08  .700000000000D+01
     .216060000000D+05  .400000000000D+01
21 10  3  7  8  0  0.0 -.450625084341D-04 -.250111042988D-11  .000000000000D+00
     .135000000000D+03  .213125000000D+02  .517521556850D-08 -.782332589304D+00
     .110082328320D-05  .160738633713D-01  .805035233498D-05  .515369846344D+04
     .288000000000D+05  .301748514175D-06  .763416802528D+00  .277534127235D-06
     .932965192625D+00  .208031250000D+03 -.251683447137D+01 -.837499170916D-08
    -.336799743347D-09  .100000000000D+01  .157400000000D+04  .000000000000D+00
     .240000000000D+01  .000000000000D+00 -.121071934700D-07  .135000000000D+03
     .216060000000D+05  .400000000000D+01
22 10  3  7  8  0  0.0  .177533831447D-03 -.102318153949D-11  .000000000000D+00
     .900000000000D+01  .778125000000D+02  .490270421731D-08 -.290289703251D+01
     .398606061935D-05  .508895306848D-02  .656954944134D-05  .515365783691D+04
     .288000000000D+05 -.167638063431D-07  .182611173300D+01 -.130385160446D-07
     .935751418123D+00  .240937500000D+03 -.190454526366D+01 -.809426573009D-08
    -.639312344211D-10  .100000000000D+01  .157400000000D+04  .000000000000D+00
     .240000000000D+01  .000000000000D+00 -.176951289177D-07  .900000000000D+01
     .216060000000D+05  .400000000000D+01
